OBJECT_NAME,OBJECT_ID,EPOCH,MEAN_MOTION,ECCENTRICITY,INCLINATION,RA_OF_ASC_NODE,ARG_OF_PERICENTER,MEAN_ANOMALY,EPHEMERIS_TYPE,CLASSIFICATION_TYPE,NORAD_CAT_ID,ELEMENT_SET_NO,REV_AT_EPOCH,BSTAR,MEAN_MOTION_DOT,MEAN_MOTION_DDOT
ONEWEB-0053,2020-008AC,2026-07-12T13:12:57.875904,13.10369408,.00015325,87.8818,31.2294,73.8393,286.2903,0,U,45157,999,31123,.11161238E-2,.402E-5,0
ONEWEB-0054,2020-008AD,2026-07-12T14:04:16.947264,13.10375093,.00016084,87.8832,31.2069,92.0050,268.1262,0,U,45158,999,31135,-.20167282E-2,-.691E-5,0
ONEWEB-0056,2020-008AE,2026-07-12T13:22:31.681632,13.10369476,.000203,87.8820,31.2060,84.9037,275.2322,0,U,45159,999,31150,.30819885E-3,.12E-5,0
ONEWEB-0057,2020-008AF,2026-07-12T13:47:21.032736,13.10371377,.00016173,87.8820,31.2147,70.6793,289.4509,0,U,45160,999,31167,-.18139364E-2,-.62E-5,0
ONEWEB-0058,2020-008AG,2026-07-12T13:28:20.340192,13.10370984,.00017863,87.8799,31.2192,100.8386,259.2943,0,U,45161,999,31174,-.23801329E-3,-.7E-6,0
ONEWEB-0059,2020-008AH,2026-07-12T13:22:57.936000,13.10367572,.00015563,87.8814,31.2215,87.7242,272.4064,0,U,45162,999,31164,.11790994E-3,.54E-6,0
ONEWEB-0062,2020-008AJ,2026-07-12T13:56:43.870848,13.10373161,.00020067,87.8821,31.2059,94.9325,265.2032,0,U,45163,999,31151,-.19983709E-2,-.685E-5,0
ONEWEB-0065,2020-008AK,2026-07-12T12:55:40.339776,13.10375341,.00018592,87.8827,31.2225,75.3027,284.8306,0,U,45164,999,31120,.19279594E-2,.686E-5,0
ONEWEB-0066,2020-020A,2026-07-12T13:17:03.380640,13.11422616,.00016841,87.8881,16.0190,93.0182,267.1139,0,U,45424,999,30600,-.78578257E-4,-.15E-6,0
ONEWEB-0067,2020-020B,2026-07-12T14:11:23.977536,13.11423164,.0001738,87.8900,15.9382,85.1582,274.9744,0,U,45425,999,30606,.97883372E-4,.47E-6,0
ONEWEB-0080,2020-020C,2026-07-12T14:10:59.776896,13.11414223,.00020054,87.8894,16.0114,96.6326,263.5030,0,U,45426,999,30603,.25664264E-3,.104E-5,0
ONEWEB-0090,2020-020D,2026-07-12T13:02:36.931200,13.11418081,.00018866,87.8897,16.0253,91.5165,268.6179,0,U,45427,999,30599,-.11438724E-2,-.393E-5,0
ONEWEB-0061,2020-020E,2026-07-12T13:48:37.320480,13.11416351,.00018195,87.8888,16.0026,89.4238,270.7098,0,U,45428,999,30595,.16243962E-2,.588E-5,0
ONEWEB-0081,2020-020F,2026-07-12T13:21:57.469824,13.11418940,.00016182,87.8888,16.0155,87.7724,272.3589,0,U,45429,999,30606,.34909078E-3,.136E-5,0
ONEWEB-0069,2020-020G,2026-07-12T13:24:36.058752,13.11420577,.00016232,87.8888,16.0182,91.0146,269.1168,0,U,45430,999,30599,.51293651E-3,.194E-5,0
ONEWEB-0031,2020-020H,2026-07-12T12:25:49.498464,13.11415824,.00020276,87.8874,16.0295,97.1525,262.9834,0,U,45431,999,30597,-.15210512E-3,-.41E-6,0
ONEWEB-0027,2020-020J,2026-07-12T11:19:27.000192,13.17641650,.0002224,87.9145,0.8349,92.0892,268.0494,0,U,45432,999,30968,.18519558E-4,.2E-6,0
ONEWEB-0064,2020-020K,2026-07-12T12:23:21.350976,13.11414032,.00020478,87.8875,16.0225,95.5799,264.5563,0,U,45433,999,30600,.22298956E-3,.92E-6,0
ONEWEB-0018,2020-020L,2026-07-12T13:09:32.166144,13.11418399,.00015888,87.8890,16.0167,100.5810,259.5497,0,U,45434,999,30595,-.68428657E-3,-.23E-5,0
ONEWEB-0083,2020-020M,2026-07-12T12:55:17.332320,13.11417476,.00019601,87.8893,16.0134,94.3886,265.7466,0,U,45435,999,30599,-.15957071E-2,-.553E-5,0
ONEWEB-0095,2020-020N,2026-07-12T12:43:04.691424,13.11415480,.00023699,87.8884,16.0226,79.4507,280.6888,0,U,45436,999,30599,-.13353304E-2,-.461E-5,0
ONEWEB-0092,2020-020P,2026-07-12T13:27:02.787552,13.11415717,.00016889,87.8891,16.0086,95.2416,264.8905,0,U,45437,999,30611,.70247606E-3,.262E-5,0
ONEWEB-0085,2020-020Q,2026-07-12T12:54:53.468640,13.11417410,.00018275,87.8881,16.0182,90.0893,270.0444,0,U,45438,999,30599,-.1551747E-2,-.537E-5,0
ONEWEB-0096,2020-020R,2026-07-12T12:57:31.582368,13.11416895,.00018109,87.8873,16.0128,88.1352,271.9983,0,U,45439,999,30598,-.14077908E-2,-.486E-5,0
ONEWEB-0037,2020-020S,2026-07-12T13:35:22.061184,13.11417074,.0001982,87.8899,15.9828,87.0609,273.0746,0,U,45440,999,30602,.13382165E-2,.487E-5,0
ONEWEB-0042,2020-020T,2026-07-12T12:42:41.315040,13.11416040,.00017014,87.8891,16.0141,86.2693,273.8630,0,U,45441,999,30598,-.13338172E-2,-.46E-5,0
ONEWEB-0098,2020-020U,2026-07-12T12:36:46.210176,13.11414081,.00019643,87.8890,16.0237,94.8210,265.3142,0,U,45442,999,30596,-.91718607E-3,-.312E-5,0
ONEWEB-0055,2020-020V,2026-07-12T13:55:57.249408,13.11415468,.00019203,87.8886,16.0114,92.6005,267.5343,0,U,45443,999,30594,.13077019E-2,.476E-5,0
ONEWEB-0093,2020-020W,2026-07-12T13:35:39.059520,13.10894092,.00015366,87.8889,16.0100,86.3416,273.7888,0,U,45444,999,30600,.14622249E-2,.527E-5,0
ONEWEB-0029,2020-020X,2026-07-12T14:06:06.880032,13.11414002,.00016073,87.8880,16.0104,91.7997,268.3315,0,U,45445,999,30598,.64956937E-3,.243E-5,0
