ONEWEB-0053             
1 45157U 20008AC  26193.55066986  .00000402  00000+0  11161-2 0  9995
2 45157  87.8818  31.2294 0001532  73.8393 286.2903 13.10369408311234
ONEWEB-0054             
1 45158U 20008AD  26193.58630726 -.00000691  00000+0 -20167-2 0  9996
2 45158  87.8832  31.2069 0001608  92.0050 268.1262 13.10375093311355
ONEWEB-0056             
1 45159U 20008AE  26193.55731113  .00000120  00000+0  30820-3 0  9999
2 45159  87.8820  31.2060 0002030  84.9037 275.2322 13.10369476311500
ONEWEB-0057             
1 45160U 20008AF  26193.57454899 -.00000620  00000+0 -18139-2 0  9991
2 45160  87.8820  31.2147 0001617  70.6793 289.4509 13.10371377311674
ONEWEB-0058             
1 45161U 20008AG  26193.56134653 -.00000070  00000+0 -23801-3 0  9996
2 45161  87.8799  31.2192 0001786 100.8386 259.2943 13.10370984311749
ONEWEB-0059             
1 45162U 20008AH  26193.55761500  .00000054  00000+0  11791-3 0  9998
2 45162  87.8814  31.2215 0001556  87.7242 272.4064 13.10367572311642
ONEWEB-0062             
1 45163U 20008AJ  26193.58106332 -.00000685  00000+0 -19984-2 0  9991
2 45163  87.8821  31.2059 0002006  94.9325 265.2032 13.10373161311512
ONEWEB-0065             
1 45164U 20008AK  26193.53866134  .00000686  00000+0  19280-2 0  9998
2 45164  87.8827  31.2225 0001859  75.3027 284.8306 13.10375341311200
ONEWEB-0066             
1 45424U 20020A   26193.55351135 -.00000015  00000+0 -78578-4 0  9998
2 45424  87.8881  16.0190 0001684  93.0182 267.1139 13.11422616306005
ONEWEB-0067             
1 45425U 20020B   26193.59124974  .00000047  00000+0  97883-4 0  9995
2 45425  87.8900  15.9382 0001738  85.1582 274.9744 13.11423164306068
ONEWEB-0080             
1 45426U 20020C   26193.59096964  .00000104  00000+0  25664-3 0  9994
2 45426  87.8894  16.0114 0002005  96.6326 263.5030 13.11414223306032
ONEWEB-0090             
1 45427U 20020D   26193.54348300 -.00000393  00000+0 -11439-2 0  9990
2 45427  87.8897  16.0253 0001886  91.5165 268.6179 13.11418081305991
ONEWEB-0061             
1 45428U 20020E   26193.57543195  .00000588  00000+0  16244-2 0  9996
2 45428  87.8888  16.0026 0001819  89.4238 270.7098 13.11416351305951
ONEWEB-0081             
1 45429U 20020F   26193.55691516  .00000136  00000+0  34909-3 0  9994
2 45429  87.8888  16.0155 0001618  87.7724 272.3589 13.11418940306065
ONEWEB-0069             
1 45430U 20020G   26193.55875068  .00000194  00000+0  51294-3 0  9992
2 45430  87.8888  16.0182 0001623  91.0146 269.1168 13.11420577305996
ONEWEB-0031             
1 45431U 20020H   26193.51793401 -.00000041  00000+0 -15211-3 0  9991
2 45431  87.8874  16.0295 0002027  97.1525 262.9834 13.11415824305972
ONEWEB-0027             
1 45432U 20020J   26193.47184028  .00000020  00000+0  18520-4 0  9998
2 45432  87.9145   0.8349 0002224  92.0892 268.0494 13.17641650309681
ONEWEB-0064             
1 45433U 20020K   26193.51621934  .00000092  00000+0  22299-3 0  9992
2 45433  87.8875  16.0225 0002047  95.5799 264.5563 13.11414032306007
ONEWEB-0018             
1 45434U 20020L   26193.54828896 -.00000230  00000+0 -68429-3 0  9993
2 45434  87.8890  16.0167 0001588 100.5810 259.5497 13.11418399305953
ONEWEB-0083             
1 45435U 20020M   26193.53839505 -.00000553  00000+0 -15957-2 0  9997
2 45435  87.8893  16.0134 0001960  94.3886 265.7466 13.11417476305992
ONEWEB-0095             
1 45436U 20020N   26193.52991541 -.00000461  00000+0 -13353-2 0  9992
2 45436  87.8884  16.0226 0002369  79.4507 280.6888 13.11415480305990
ONEWEB-0092             
1 45437U 20020P   26193.56044893  .00000262  00000+0  70248-3 0  9990
2 45437  87.8891  16.0086 0001688  95.2416 264.8905 13.11415717306113
ONEWEB-0085             
1 45438U 20020Q   26193.53811885 -.00000537  00000+0 -15517-2 0  9995
2 45438  87.8881  16.0182 0001827  90.0893 270.0444 13.11417410305991
ONEWEB-0096             
1 45439U 20020R   26193.53994887 -.00000486  00000+0 -14078-2 0  9994
2 45439  87.8873  16.0128 0001810  88.1352 271.9983 13.11416895305986
ONEWEB-0037             
1 45440U 20020S   26193.56622756  .00000487  00000+0  13382-2 0  9998
2 45440  87.8899  15.9828 0001982  87.0609 273.0746 13.11417074306020
ONEWEB-0042             
1 45441U 20020T   26193.52964485 -.00000460  00000+0 -13338-2 0  9997
2 45441  87.8891  16.0141 0001701  86.2693 273.8630 13.11416040305982
ONEWEB-0098             
1 45442U 20020U   26193.52553484 -.00000312  00000+0 -91719-3 0  9997
2 45442  87.8890  16.0237 0001964  94.8210 265.3142 13.11414081305964
ONEWEB-0055             
1 45443U 20020V   26193.58052372  .00000476  00000+0  13077-2 0  9993
2 45443  87.8886  16.0114 0001920  92.6005 267.5343 13.11415468305949
ONEWEB-0093             
1 45444U 20020W   26193.56642430  .00000527  00000+0  14622-2 0  9996
2 45444  87.8889  16.0100 0001536  86.3416 273.7888 13.10894092306001
ONEWEB-0029             
1 45445U 20020X   26193.58757963  .00000243  00000+0  64957-3 0  9999
2 45445  87.8880  16.0104 0001607  91.7997 268.3315 13.11414002305981
